0 SATCOM 1R
1 13984U 83030A   13282.78075481 -.00000089  00000-0  10000-3 0  4408
2 13984 014.5246 021.7012 0008481 045.2859 314.7846 00.99847174 84213
0 SATCOM 1R
1 13984U 83030A   13282.78079313  .00000000  00000-0  10000-3 0  4420
2 13984 014.5256 021.7025 0007335 042.7000 317.3630 00.99842761 84212
0 SATCOM 1R
1 13984U 83030A   13285.78522508 -.00000055  00000-0  10000-3 0  4412
2 13984 014.5282 021.6688 0008009 045.2097 314.8357 00.99845991 84247
0 SATCOM 1R
1 13984U 83030A   13286.78676885 -.00000044  00000-0  10000-3 0  4420
2 13984 014.5288 021.6572 0008609 045.4151 314.6687 00.99846849 84252
0 SATCOM 1R
1 13984U 83030A   13288.78968877 -.00000020  00000-0  10000-3 0  4432
2 13984 014.5310 021.6344 0008826 046.4458 313.6108 00.99846816 84270
0 SATCOM 1R
1 13984U 83030A   13290.79265951  .00000004  00000-0  10000-3 0  4441
2 13984 014.5330 021.6123 0008901 047.1662 312.8835 00.99846936 84299
0 SATCOM 1R
1 13984U 83030A   13292.79564373  .00000027  00000-0  10000-3 0  4459
2 13984 014.5350 021.5901 0008985 047.7704 312.2788 00.99847174 84318
0 SATCOM 1R
1 13984U 83030A   13294.79863505  .00000049  00000-0  10000-3 0  4465
2 13984 014.5372 021.5679 0008587 048.1350 311.9121 00.99847485 84338
